start=new Date('2023-02-23T00:00:00.000Z').valueOf();
sats=[{"FILE":"3825529","OBJECT_TYPE":"PAYLOAD","COUNTRY_CODE":"US","APOAPSIS":"548.190","ECCENTRICITY":"0.00013130","RA_OF_ASC_NODE":"213.4640","BSTAR":"-0.00002733100000","MEAN_ANOMALY":"264.6653","PERIAPSIS":"546.371","SITE":"AFETR","MEAN_MOTION_DOT":"-0.00000688","RCS_SIZE":"LARGE","ELEMENT_SET_NO":"999","TIME_SYSTEM":"UTC","EPOCH":"2023-02-22T19:54:03.104640","TLE_LINE2":"2 45066  53.0520 213.4640 0001313  95.4485 264.6653 15.06378178169308","TLE_LINE1":"1 45066U 20006Y   23053.82920260 -.00000688  00000-0 -27331-4 0  9995","ARG_OF_PERICENTER":"95.4485","INCLINATION":"53.0520","OBJECT_ID":"2020-006Y","MEAN_ELEMENT_THEORY":"SGP4","MEAN_MOTION_DDOT":"0.0000000000000","DECAY_DATE":null,"REF_FRAME":"TEME","LAUNCH_DATE":"2020-01-29","NORAD_CAT_ID":"45066","REV_AT_EPOCH":"16930","EPHEMERIS_TYPE":"0","PERIOD":"95.594","OBJECT_NAME":"STARLINK-1145","CENTER_NAME":"EARTH","MEAN_MOTION":"15.06378178","SEMIMAJOR_AXIS":"6925.415","GP_ID":"226470319","CLASSIFICATION_TYPE":"U"},{"ECCENTRICITY":"0.00013620","BSTAR":"-0.00038563000000","RA_OF_ASC_NODE":"213.9936","FILE":"3825529","APOAPSIS":"548.243","COUNTRY_CODE":"US","OBJECT_TYPE":"PAYLOAD","TIME_SYSTEM":"UTC","EPOCH":"2023-02-22T17:04:12.635904","TLE_LINE2":"2 45067  53.0529 213.9936 0001362  89.6449 270.4696 15.06371758169297","MEAN_ANOMALY":"270.4696","PERIAPSIS":"546.357","SITE":"AFETR","RCS_SIZE":"LARGE","MEAN_MOTION_DOT":"-0.00006016","ELEMENT_SET_NO":"999","MEAN_ELEMENT_THEORY":"SGP4","OBJECT_ID":"2020-006Z","MEAN_MOTION_DDOT":"0.0000000000000","DECAY_DATE":null,"ARG_OF_PERICENTER":"89.6449","TLE_LINE1":"1 45067U 20006Z   23053.71125736 -.00006016  00000-0 -38563-3 0  9998","INCLINATION":"53.0529","CENTER_NAME":"EARTH","PERIOD":"95.594","OBJECT_NAME":"STARLINK-1150","MEAN_MOTION":"15.06371758","GP_ID":"226470569","CLASSIFICATION_TYPE":"U","SEMIMAJOR_AXIS":"6925.435","REF_FRAME":"TEME","LAUNCH_DATE":"2020-01-29","REV_AT_EPOCH":"16929","NORAD_CAT_ID":"45067","EPHEMERIS_TYPE":"0"},{"INCLINATION":"53.0526","TLE_LINE1":"1 45068U 20006AA  23053.48545317 -.00000249  00000-0  21484-5 0  9991","ARG_OF_PERICENTER":"72.6210","DECAY_DATE":null,"MEAN_MOTION_DDOT":"0.0000000000000","MEAN_ELEMENT_THEORY":"SGP4","OBJECT_ID":"2020-006AA","EPHEMERIS_TYPE":"0","REV_AT_EPOCH":"16925","NORAD_CAT_ID":"45068","REF_FRAME":"TEME","LAUNCH_DATE":"2020-01-29","GP_ID":"226418057","CLASSIFICATION_TYPE":"U","SEMIMAJOR_AXIS":"6925.383","MEAN_MOTION":"15.06388755","CENTER_NAME":"EARTH","PERIOD":"95.593","OBJECT_NAME":"STARLINK-1161","APOAPSIS":"548.215","OBJECT_TYPE":"PAYLOAD","COUNTRY_CODE":"US","FILE":"3824148","BSTAR":"0.00000214840000","RA_OF_ASC_NODE":"214.8740","ECCENTRICITY":"0.00013960","ELEMENT_SET_NO":"999","SITE":"AFETR","MEAN_MOTION_DOT":"-0.00000249","RCS_SIZE":"LARGE","PERIAPSIS":"546.281","MEAN_ANOMALY":"287.4932","TLE_LINE2":"2 45068  53.0526 214.8740 0001396  72.6210 287.4932 15.06388755169255","EPOCH":"2023-02-22T11:39:03.153888","TIME_SYSTEM":"UTC"},{"DECAY_DATE":null,"MEAN_MOTION_DDOT":"0.0000000000000","MEAN_ELEMENT_THEORY":"SGP4","OBJECT_ID":"2020-006AD","INCLINATION":"53.0534","TLE_LINE1":"1 45071U 20006AD  23053.87712224 -.00003667  00000-0 -22757-3 0  9991","ARG_OF_PERICENTER":"91.3993","GP_ID":"226471045","CLASSIFICATION_TYPE":"U","SEMIMAJOR_AXIS":"6925.432","MEAN_MOTION":"15.06372753","CENTER_NAME":"EARTH","PERIOD":"95.594","OBJECT_NAME":"STARLINK-1167","EPHEMERIS_TYPE":"0","NORAD_CAT_ID":"45071","REV_AT_EPOCH":"16931","REF_FRAME":"TEME","LAUNCH_DATE":"2020-01-29","BSTAR":"-0.00022757000000","RA_OF_ASC_NODE":"213.2446","ECCENTRICITY":"0.00014930","APOAPSIS":"548.331","OBJECT_TYPE":"PAYLOAD","COUNTRY_CODE":"US","FILE":"3825529","TLE_LINE2":"2 45071  53.0534 213.2446 0001493  91.3993 268.7167 15.06372753169318","EPOCH":"2023-02-22T21:03:03.361536","TIME_SYSTEM":"UTC","ELEMENT_SET_NO":"999","SITE":"AFETR","RCS_SIZE":"LARGE","MEAN_MOTION_DOT":"-0.00003667","PERIAPSIS":"546.263","MEAN_ANOMALY":"268.7167"},{"REF_FRAME":"TEME","LAUNCH_DATE":"2020-01-29","EPHEMERIS_TYPE":"0","REV_AT_EPOCH":"16930","NORAD_CAT_ID":"45072","PERIOD":"95.594","OBJECT_NAME":"STARLINK-1168","CENTER_NAME":"EARTH","SEMIMAJOR_AXIS":"6925.417","CLASSIFICATION_TYPE":"U","GP_ID":"226469819","MEAN_MOTION":"15.06377574","TLE_LINE1":"1 45072U 20006AE  23053.81446417  .00000367  00000-0  43577-4 0  9990","ARG_OF_PERICENTER":"101.3216","INCLINATION":"53.0521","MEAN_MOTION_DDOT":"0.0000000000000","OBJECT_ID":"2020-006AE","MEAN_ELEMENT_THEORY":"SGP4","DECAY_DATE":null,"PERIAPSIS":"546.306","MEAN_ANOMALY":"258.7931","ELEMENT_SET_NO":"999","RCS_SIZE":"LARGE","SITE":"AFETR","MEAN_MOTION_DOT":"0.00000367","TIME_SYSTEM":"UTC","TLE_LINE2":"2 45072  53.0521 213.5319 0001409 101.3216 258.7931 15.06377574169307","EPOCH":"2023-02-22T19:32:49.704288","FILE":"3825529","COUNTRY_CODE":"US","OBJECT_TYPE":"PAYLOAD","APOAPSIS":"548.258","ECCENTRICITY":"0.00014090","RA_OF_ASC_NODE":"213.5319","BSTAR":"0.00004357700000"},{"OBJECT_ID":"2020-006AF","MEAN_ELEMENT_THEORY":"SGP4","MEAN_MOTION_DDOT":"0.0000000000000","DECAY_DATE":null,"ARG_OF_PERICENTER":"88.2647","TLE_LINE1":"1 45073U 20006AF  23053.70756076  .00000289  00000-0  38274-4 0  9995","INCLINATION":"53.0531","OBJECT_NAME":"STARLINK-1170","PERIOD":"95.592","CENTER_NAME":"EARTH","MEAN_MOTION":"15.06398779","SEMIMAJOR_AXIS":"6925.352","GP_ID":"226470069","CLASSIFICATION_TYPE":"U","LAUNCH_DATE":"2020-01-29","REF_FRAME":"TEME","REV_AT_EPOCH":"16928","NORAD_CAT_ID":"45073","EPHEMERIS_TYPE":"0","ECCENTRICITY":"0.00011660","RA_OF_ASC_NODE":"214.0093","BSTAR":"0.00003827400000","FILE":"3825529","COUNTRY_CODE":"US","OBJECT_TYPE":"PAYLOAD","APOAPSIS":"548.025","TIME_SYSTEM":"UTC","EPOCH":"2023-02-22T16:58:53.249664","TLE_LINE2":"2 45073  53.0531 214.0093 0001166  88.2647 271.8475 15.06398779169281","MEAN_ANOMALY":"271.8475","PERIAPSIS":"546.410","RCS_SIZE":"LARGE","SITE":"AFETR","MEAN_MOTION_DOT":"0.00000289","ELEMENT_SET_NO":"999"},{"ECCENTRICITY":"0.00011200","BSTAR":"0.00114300000000","RA_OF_ASC_NODE":"217.3538","FILE":"3824148","APOAPSIS":"547.853","OBJECT_TYPE":"PAYLOAD","COUNTRY_CODE":"US","TIME_SYSTEM":"UTC","TLE_LINE2":"2 45074  53.0519 217.3538 0001120  80.5924 279.5191 15.06444373169171","EPOCH":"2023-02-21T23:06:41.748480","PERIAPSIS":"546.302","MEAN_ANOMALY":"279.5191","ELEMENT_SET_NO":"999","MEAN_MOTION_DOT":"0.00016805","SITE":"AFETR","RCS_SIZE":"LARGE","MEAN_MOTION_DDOT":"0.0000000000000","MEAN_ELEMENT_THEORY":"SGP4","OBJECT_ID":"2020-006AG","DECAY_DATE":null,"ARG_OF_PERICENTER":"80.5924","TLE_LINE1":"1 45074U 20006AG  23052.96298320  .00016805  00000-0  11430-2 0  9990","INCLINATION":"53.0519","CENTER_NAME":"EARTH","PERIOD":"95.589","OBJECT_NAME":"STARLINK-1172","CLASSIFICATION_TYPE":"U","GP_ID":"226417558","SEMIMAJOR_AXIS":"6925.213","MEAN_MOTION":"15.06444373","LAUNCH_DATE":"2020-01-29","REF_FRAME":"TEME","EPHEMERIS_TYPE":"0","NORAD_CAT_ID":"45074","REV_AT_EPOCH":"16917"},{"MEAN_ELEMENT_THEORY":"SGP4","OBJECT_ID":"2020-006AH","MEAN_MOTION_DDOT":"0.0000000000000","DECAY_DATE":null,"ARG_OF_PERICENTER":"85.1652","TLE_LINE1":"1 45075U 20006AH  23053.85868780 -.00000409  00000-0 -85876-5 0  9996","INCLINATION":"53.0515","CENTER_NAME":"EARTH","PERIOD":"95.594","OBJECT_NAME":"STARLINK-1174","MEAN_MOTION":"15.06375733","GP_ID":"226471544","CLASSIFICATION_TYPE":"U","SEMIMAJOR_AXIS":"6925.423","REF_FRAME":"TEME","LAUNCH_DATE":"2020-01-29","NORAD_CAT_ID":"45075","REV_AT_EPOCH":"16931","EPHEMERIS_TYPE":"0","ECCENTRICITY":"0.00011610","BSTAR":"-0.00000858760000","RA_OF_ASC_NODE":"213.3335","FILE":"3825529","APOAPSIS":"548.092","OBJECT_TYPE":"PAYLOAD","COUNTRY_CODE":"US","TIME_SYSTEM":"UTC","EPOCH":"2023-02-22T20:36:30.625920","TLE_LINE2":"2 45075  53.0515 213.3335 0001161  85.1652 274.9469 15.06375733169319","MEAN_ANOMALY":"274.9469","PERIAPSIS":"546.484","RCS_SIZE":"LARGE","SITE":"AFETR","MEAN_MOTION_DOT":"-0.00000409","ELEMENT_SET_NO":"999"},{"RA_OF_ASC_NODE":"213.8895","BSTAR":"0.00014493000000","ECCENTRICITY":"0.00009730","COUNTRY_CODE":"US","OBJECT_TYPE":"PAYLOAD","APOAPSIS":"547.896","FILE":"3825529","EPOCH":"2023-02-22T17:34:40.271520","TLE_LINE2":"2 45076  53.0520 213.8895 0000973  94.8946 265.2154 15.06397330169293","TIME_SYSTEM":"UTC","SITE":"AFETR","RCS_SIZE":"LARGE","MEAN_MOTION_DOT":"0.00001878","ELEMENT_SET_NO":"999","MEAN_ANOMALY":"265.2154","PERIAPSIS":"546.548","DECAY_DATE":null,"OBJECT_ID":"2020-006AJ","MEAN_ELEMENT_THEORY":"SGP4","MEAN_MOTION_DDOT":"0.0000000000000","INCLINATION":"53.0520","ARG_OF_PERICENTER":"94.8946","TLE_LINE1":"1 45076U 20006AJ  23053.73241055  .00001878  00000-0  14493-3 0  9998","MEAN_MOTION":"15.06397330","SEMIMAJOR_AXIS":"6925.357","CLASSIFICATION_TYPE":"U","GP_ID":"226470320","PERIOD":"95.592","OBJECT_NAME":"STARLINK-1180","CENTER_NAME":"EARTH","NORAD_CAT_ID":"45076","REV_AT_EPOCH":"16929","EPHEMERIS_TYPE":"0","REF_FRAME":"TEME","LAUNCH_DATE":"2020-01-29"},{"OBJECT_TYPE":"PAYLOAD","COUNTRY_CODE":"US","APOAPSIS":"548.223","FILE":"3825529","RA_OF_ASC_NODE":"213.5153","BSTAR":"0.00014566000000","ECCENTRICITY":"0.00013690","ELEMENT_SET_NO":"999","SITE":"AFETR","MEAN_MOTION_DOT":"0.00001888","RCS_SIZE":"LARGE","PERIAPSIS":"546.327","MEAN_ANOMALY":"262.6568","TLE_LINE2":"2 45078  53.0519 213.5153 0001369  97.4577 262.6568 15.06380078169297","EPOCH":"2023-02-22T19:38:07.717632","TIME_SYSTEM":"UTC","INCLINATION":"53.0519","ARG_OF_PERICENTER":"97.4577","TLE_LINE1":"1 45078U 20006AL  23053.81814488  .00001888  00000-0  14566-3 0  9997","DECAY_DATE":null,"MEAN_MOTION_DDOT":"0.0000000000000","OBJECT_ID":"2020-006AL","MEAN_ELEMENT_THEORY":"SGP4","EPHEMERIS_TYPE":"0","REV_AT_EPOCH":"16929","NORAD_CAT_ID":"45078","LAUNCH_DATE":"2020-01-29","REF_FRAME":"TEME","SEMIMAJOR_AXIS":"6925.410","GP_ID":"226470570","CLASSIFICATION_TYPE":"U","MEAN_MOTION":"15.06380078","PERIOD":"95.593","OBJECT_NAME":"STARLINK-1177","CENTER_NAME":"EARTH"}];
